IRIDIUM 26              
1 24903U 97043A   25132.46737099  .00000449  00000+0  14468-3 0  9991
2 24903  86.3929 125.6297 0002225  94.3283 265.8169 14.37116437451610
IRIDIUM 22              
1 24907U 97043E   25132.50710025  .00000402  00000+0  13174-3 0  9992
2 24907  86.3937 129.1208 0002342  90.6322 269.5143 14.35933460451655
DUMMY MASS 1            
1 24925U 97048A   25132.54877779  .00000430  00000+0  44911-4 0  9996
2 24925  86.3347 151.8068 0004199 274.5318  85.5427 14.86958739499831
DUMMY MASS 2            
1 24926U 97048B   25132.57229824  .00000419  00000+0  44003-4 0  9991
2 24926  86.3349 153.3957 0005108 291.4454  68.6226 14.86711322499618
IRIDIUM 29              
1 24944U 97051A   25132.54261333  .00000433  00000+0  14106-3 0  9999
2 24944  86.3970 158.8450 0002436  87.5734 272.5742 14.36438452448159
IRIDIUM 33              
1 24946U 97051C   25132.55516116  .00000327  00000+0  10814-3 0  9998
2 24946  86.3885 158.0969 0007620 177.9477 182.1752 14.34872227447630
IRIDIUM 28              
1 24948U 97051E   25132.53920813  .00000378  00000+0  12004-3 0  9990
2 24948  86.3972 156.3841 0002195 102.8195 257.3248 14.37362155448728
IRIDIUM 36              
1 24967U 97056C   25132.57766245  .00000431  00000+0  13730-3 0  9994
2 24967  86.4014 187.9443 0002516  98.0051 262.1432 14.37582739447101
